OBJECT_NAME,OBJECT_ID,EPOCH,MEAN_MOTION,ECCENTRICITY,INCLINATION,RA_OF_ASC_NODE,ARG_OF_PERICENTER,MEAN_ANOMALY,EPHEMERIS_TYPE,CLASSIFICATION_TYPE,NORAD_CAT_ID,ELEMENT_SET_NO,REV_AT_EPOCH,BSTAR,MEAN_MOTION_DOT,MEAN_MOTION_DDOT
EYESAT A (AO-27),1993-061C,2026-05-19T09:37:19.086240,14.30933560,.00084422,98.6890,206.8230,177.1084,183.0148,0,U,22825,999,70288,.38626097E-4,.57E-6,0
ITAMSAT (IO-26),1993-061D,2026-05-19T11:00:40.834944,14.31359582,.00092915,98.6838,206.7954,161.1632,198.9896,0,U,22826,999,70320,.3667669E-4,.53E-6,0
RADIO ROSTO (RS15),1994-085A,2026-05-19T21:54:30.545856,11.27583632,.01551583,64.8186,348.9454,9.0662,351.3008,0,U,23439,999,29271,.41315339E-4,-.41E-6,0
JAS-2 (FO-29),1996-046B,2026-05-19T20:17:53.086848,13.53272796,.03500565,98.5268,352.5960,169.8315,191.0152,0,U,24278,999,46933,.39402042E-4,.5E-7,0
FORTE,1997-047A,2026-05-19T22:26:16.327680,14.27932196,.00239442,69.9532,77.8337,311.8555,48.0523,0,U,24920,999,49465,.61152855E-4,.94E-6,0
TECHSAT 1B (GO-32),1998-043D,2026-05-19T23:12:40.382784,14.24422233,.00006191,99.0064,132.0156,355.9675,4.1498,0,U,25397,999,44731,.28556327E-4,.19E-6,0
ISS (ZARYA),1998-067A,2026-05-19T19:27:10.117728,15.49275598,.00075492,51.6327,80.5761,76.5627,283.6202,0,U,25544,999,56735,.10219917E-3,.5239E-4,0
IMAGE,2000-017A,2026-05-16T20:25:18.819264,1.68665369,.74554789,94.2039,314.9580,291.3690,8.2558,0,U,26113,999,16097,.11882681E-1,.32E-6,0
CLUSTER II-FM7 (SAMBA),2000-041A,2026-05-19T03:11:14.910144,0.44883482,.90185594,149.8437,45.8867,262.6588,0.3747,0,U,26410,999,2018,0,.6663E-4,0
CLUSTER II-FM8 (TANGO),2000-045B,2026-05-19T03:31:59.188512,0.44397908,.90257633,150.1023,46.8868,263.5226,0.1578,0,U,26464,999,2017,0,.6855E-4,0
ODIN,2001-007A,2026-05-19T22:41:53.091168,15.67330619,.00037344,97.3901,179.2556,179.8610,180.2652,0,U,26702,999,38496,.9752169E-3,.106009E-2,0
OMNI-M1,2001-026A,2026-05-19T10:28:09.458112,3.92401339,.00151862,44.8407,251.8908,48.7845,311.3788,0,U,26857,999,20444,0,-.14E-6,0
PCSAT (NO-44),2001-043C,2026-05-19T20:55:25.181472,14.31943954,.00062173,67.0507,317.5081,263.5445,96.4949,0,U,26931,999,28639,.51157791E-4,.54E-6,0
PROBA-1,2001-049B,2026-05-19T23:48:01.746432,15.07373099,.00539131,97.9601,147.5418,216.8205,142.9314,0,U,26958,999,33937,.31522295E-4,.419E-5,0
SAUDISAT 1C (SO-50),2002-058C,2026-05-19T15:08:19.746240,14.82980190,.00756133,64.5520,217.3330,267.7041,91.5406,0,U,27607,999,26022,.82623882E-4,.548E-5,0
CORIOLIS,2003-001A,2026-05-19T22:34:30.814752,14.19936328,.0012892,98.7133,147.2565,296.5963,63.3892,0,U,27640,999,21021,.42202142E-4,.46E-6,0
CUTE-1 (CO-55),2003-031E,2026-05-19T22:30:24.996384,14.24316405,.00082856,98.6744,148.8520,267.2819,92.7412,0,U,27844,999,18765,.96398888E-4,.179E-5,0
CUBESAT XI-IV (CO-57),2003-031J,2026-05-19T11:46:10.668000,14.23603827,.00082536,98.6775,148.1459,290.1420,69.8871,0,U,27848,999,18729,.77857942E-4,.134E-5,0
MOZHAETS 4 (RS22),2003-042A,2026-05-19T23:30:04.921632,14.73413487,.00113787,98.3463,323.5426,5.2526,147.4065,0,U,27939,999,21139,.17530377E-3,.1084E-4,0
