EYESAT A (AO-27)        
1 22825U 93061C   26139.40091535  .00000057  00000+0  38626-4 0  9996
2 22825  98.6890 206.8230 0008442 177.1084 183.0148 14.30933560702882
ITAMSAT (IO-26)         
1 22826U 93061D   26139.45880596  .00000053  00000+0  36677-4 0  9995
2 22826  98.6838 206.7954 0009291 161.1632 198.9896 14.31359582703201
RADIO ROSTO (RS15)      
1 23439U 94085A   26139.91285354 -.00000041  00000+0  41315-4 0  9998
2 23439  64.8186 348.9454 0155158   9.0662 351.3008 11.27583632292710
JAS-2 (FO-29)           
1 24278U 96046B   26139.84575332  .00000005  00000+0  39402-4 0  9992
2 24278  98.5268 352.5960 0350056 169.8315 191.0152 13.53272796469334
FORTE                   
1 24920U 97047A   26139.93491120  .00000094  00000+0  61153-4 0  9996
2 24920  69.9532  77.8337 0023944 311.8555  48.0523 14.27932196494652
TECHSAT 1B (GO-32)      
1 25397U 98043D   26139.96713406  .00000019  00000+0  28556-4 0  9996
2 25397  99.0064 132.0156 0000619 355.9675   4.1498 14.24422233447312
ISS (ZARYA)             
1 25544U 98067A   26139.81053377  .00005239  00000+0  10220-3 0  9991
2 25544  51.6327  80.5761 0007549  76.5627 283.6202 15.49275598567355
IMAGE                   
1 26113U 00017A   26136.85091226  .00000032  00000+0  11883-1 0  9998
2 26113  94.2039 314.9580 7455478 291.3690   8.2558  1.68665369160973
CLUSTER II-FM7 (SAMBA)  
1 26410U 00041A   26139.13281146  .00006663  00000+0  00000+0 0  9994
2 26410 149.8437  45.8867 9018559 262.6588   0.3747  0.44883482 20186
CLUSTER II-FM8 (TANGO)  
1 26464U 00045B   26139.14721283  .00006855  00000+0  00000+0 0  9992
2 26464 150.1023  46.8868 9025763 263.5226   0.1578  0.44397908 20179
ODIN                    
1 26702U 01007A   26139.94575337  .00106009  00000+0  97522-3 0  9992
2 26702  97.3901 179.2556 0003734 179.8610 180.2652 15.67330619384967
OMNI-M1                 
1 26857U 01026A   26139.43622058 -.00000014  00000+0  00000+0 0  9992
2 26857  44.8407 251.8908 0015186  48.7845 311.3788  3.92401339204446
PCSAT (NO-44)           
1 26931U 01043C   26139.87181923  .00000054  00000+0  51158-4 0  9991
2 26931  67.0507 317.5081 0006217 263.5445  96.4949 14.31943954286390
PROBA-1                 
1 26958U 01049B   26139.99168688  .00000419  00000+0  31522-4 0  9990
2 26958  97.9601 147.5418 0053913 216.8205 142.9314 15.07373099339372
SAUDISAT 1C (SO-50)     
1 27607U 02058C   26139.63078410  .00000548  00000+0  82624-4 0  9999
2 27607  64.5520 217.3330 0075613 267.7041  91.5406 14.82980190260223
CORIOLIS                
1 27640U 03001A   26139.94063443  .00000046  00000+0  42202-4 0  9990
2 27640  98.7133 147.2565 0012892 296.5963  63.3892 14.19936328210217
CUTE-1 (CO-55)          
1 27844U 03031E   26139.93778931  .00000179  00000+0  96399-4 0  9996
2 27844  98.6744 148.8520 0008285 267.2819  92.7412 14.24316405187653
CUBESAT XI-IV (CO-57)   
1 27848U 03031J   26139.49040125  .00000134  00000+0  77858-4 0  9998
2 27848  98.6775 148.1459 0008253 290.1420  69.8871 14.23603827187293
MOZHAETS 4 (RS22)       
1 27939U 03042A   26139.97922363  .00001084  00000+0  17530-3 0  9992
2 27939  98.3463 323.5426 0011378   5.2526 147.4065 14.73413487211395
